ONEWEB-0013             
1 45131U 20008A   24210.46214822  .00000318  00000+0  88739-3 0  9991
2 45131  87.8648 191.3608 0002823  71.2664 288.8769 13.09388071216698
ONEWEB-0017             
1 45132U 20008B   24210.40779156  .00000075  00000+0  17765-3 0  9993
2 45132  87.8968 173.2678 0001807  81.9399 278.1933 13.10377257218518
ONEWEB-0020             
1 45133U 20008C   24210.14883833 -.00000359  00000+0 -10651-2 0  9996
2 45133  87.8962 173.3045 0001915  86.1451 273.9895 13.10370859218889
ONEWEB-0021             
1 45134U 20008D   24210.39284530 -.00000663  00000+0 -19358-2 0  9994
2 45134  87.8971 173.2735 0002112  76.6914 283.4449 13.10373883219313
ONEWEB-0023             
1 45136U 20008F   24210.17622671 -.00000051  00000+0 -18136-3 0  9999
2 45136  87.8972 173.3057 0002424  87.8507 272.2898 13.10376559218598
ONEWEB-0024             
1 45137U 20008G   24210.14718226 -.00000287  00000+0 -85716-3 0  9998
2 45137  87.8952 173.2950 0002011  79.9710 280.1644 13.10370423218757
ONEWEB-0025             
1 45138U 20008H   24210.16543613 -.00000547  00000+0 -16041-2 0  9990
2 45138  87.8959 173.2914 0002243  80.2998 279.8382 13.10374448219087
ONEWEB-0026             
1 45139U 20008J   24210.12241451 -.00000473  00000+0 -13701-2 0  9990
2 45139  87.8997 158.2217 0001917  82.9942 277.1404 13.11418901221672
ONEWEB-0028             
1 45140U 20008K   24210.38268163  .00000625  00000+0  17281-2 0  9993
2 45140  87.8991 158.2083 0002686  72.6346 287.5075 13.11419119218348
ONEWEB-0032             
1 45141U 20008L   24210.18038824  .00000155  00000+0  40717-3 0  9990
2 45141  87.8963 173.3352 0002180  78.2745 281.8627 13.10376310218927
ONEWEB-0033             
1 45142U 20008M   24210.15547716 -.00000564  00000+0 -16512-2 0  9994
2 45142  87.8959 173.3499 0001836  84.7805 275.3531 13.10372128218870
ONEWEB-0035             
1 45143U 20008N   24210.41609626  .00000527  00000+0  14744-2 0  9995
2 45143  87.8967 173.2817 0001967  81.2997 278.8353 13.10376489218629
ONEWEB-0036             
1 45144U 20008P   24210.40613952 -.00000883  00000+0 -25665-2 0  9993
2 45144  87.8959 173.2396 0002336  85.1363 275.0031 13.10375045219028
ONEWEB-0038             
1 45145U 20008Q   24210.12072367 -.00000470  00000+0 -13630-2 0  9993
2 45145  87.8991 158.2211 0002401  61.2148 298.9220 13.11419044220804
ONEWEB-0040             
1 45147U 20008S   24210.15215415 -.00000426  00000+0 -12574-2 0  9998
2 45147  87.8970 173.3117 0002117  80.7768 279.3598 13.10371330218413
ONEWEB-0043             
1 45149U 20008U   24210.15381541 -.00000508  00000+0 -14928-2 0  9990
2 45149  87.8961 173.3160 0002579  81.3818 278.7601 13.10370925218729
ONEWEB-0044             
1 45150U 20008V   24210.18208318  .00002225  00000+0  63371-2 0  9997
2 45150  87.8964 173.3054 0002084  82.0337 278.1027 13.10367141219016
ONEWEB-0045             
1 45151U 20008W   24210.35640737 -.00000334  00000+0 -97753-3 0  9995
2 45151  87.8991 158.1563 0002036  76.8826 283.2529 13.11420901220903
ONEWEB-0047             
1 45152U 20008X   24210.17539845 -.00000074  00000+0 -24766-3 0  9998
2 45152  87.8968 173.3110 0002131  82.3058 277.8312 13.10376454218751
ONEWEB-0048             
1 45153U 20008Y   24210.39949104 -.00000343  00000+0 -10177-2 0  9995
2 45153  87.8969 173.2832 0002166  82.7486 277.3888 13.10375212218372
ONEWEB-0049             
1 45154U 20008Z   24210.17207851 -.00000277  00000+0 -83079-3 0  9996
2 45154  87.8975 173.3092 0002520  91.7077 268.4339 13.10376438218574
ONEWEB-0051             
1 45155U 20008AA  24210.12581120 -.00000392  00000+0 -11411-2 0  9994
2 45155  87.8992 158.2438 0001913  83.0090 277.1256 13.11419029221556
ONEWEB-0052             
1 45156U 20008AB  24210.16875890 -.00000425  00000+0 -12539-2 0  9998
2 45156  87.8967 173.2783 0002578  88.8453 271.2970 13.10374857218465
ONEWEB-0053             
1 45157U 20008AC  24210.15049918 -.00000440  00000+0 -12968-2 0  9995
2 45157  87.8962 173.3354 0002277  74.8467 285.2912 13.10371033218433
