OBJECT_NAME,OBJECT_ID,EPOCH,MEAN_MOTION,ECCENTRICITY,INCLINATION,RA_OF_ASC_NODE,ARG_OF_PERICENTER,MEAN_ANOMALY,EPHEMERIS_TYPE,CLASSIFICATION_TYPE,NORAD_CAT_ID,ELEMENT_SET_NO,REV_AT_EPOCH,BSTAR,MEAN_MOTION_DOT,MEAN_MOTION_DDOT
ONEWEB-0013,2020-008A,2024-07-28T11:05:29.606208,13.09388071,.0002823,87.8648,191.3608,71.2664,288.8769,0,U,45131,999,21669,.88739E-3,.318E-5,0
ONEWEB-0017,2020-008B,2024-07-28T09:47:13.190784,13.10377257,.0001807,87.8968,173.2678,81.9399,278.1933,0,U,45132,999,21851,.17765E-3,.75E-6,0
ONEWEB-0020,2020-008C,2024-07-28T03:34:19.631712,13.10370859,.0001915,87.8962,173.3045,86.1451,273.9895,0,U,45133,999,21888,-.10651E-2,-.359E-5,0
ONEWEB-0021,2020-008D,2024-07-28T09:25:41.833920,13.10373883,.0002112,87.8971,173.2735,76.6914,283.4449,0,U,45134,999,21931,-.19358E-2,-.663E-5,0
ONEWEB-0023,2020-008F,2024-07-28T04:13:45.987744,13.10376559,.0002424,87.8972,173.3057,87.8507,272.2898,0,U,45136,999,21859,-.18136E-3,-.51E-6,0
ONEWEB-0024,2020-008G,2024-07-28T03:31:56.547264,13.10370423,.0002011,87.8952,173.2950,79.9710,280.1644,0,U,45137,999,21875,-.85716E-3,-.287E-5,0
ONEWEB-0025,2020-008H,2024-07-28T03:58:13.681632,13.10374448,.0002243,87.8959,173.2914,80.2998,279.8382,0,U,45138,999,21908,-.16041E-2,-.547E-5,0
ONEWEB-0026,2020-008J,2024-07-28T02:56:16.613664,13.11418901,.0001917,87.8997,158.2217,82.9942,277.1404,0,U,45139,999,22167,-.13701E-2,-.473E-5,0
ONEWEB-0028,2020-008K,2024-07-28T09:11:03.692832,13.11419119,.0002686,87.8991,158.2083,72.6346,287.5075,0,U,45140,999,21834,.17281E-2,.625E-5,0
ONEWEB-0032,2020-008L,2024-07-28T04:19:45.543936,13.10376310,.000218,87.8963,173.3352,78.2745,281.8627,0,U,45141,999,21892,.40717E-3,.155E-5,0
ONEWEB-0033,2020-008M,2024-07-28T03:43:53.226624,13.10372128,.0001836,87.8959,173.3499,84.7805,275.3531,0,U,45142,999,21887,-.16512E-2,-.564E-5,0
ONEWEB-0035,2020-008N,2024-07-28T09:59:10.716864,13.10376489,.0001967,87.8967,173.2817,81.2997,278.8353,0,U,45143,999,21862,.14744E-2,.527E-5,0
ONEWEB-0036,2020-008P,2024-07-28T09:44:50.454528,13.10375045,.0002336,87.8959,173.2396,85.1363,275.0031,0,U,45144,999,21902,-.25665E-2,-.883E-5,0
ONEWEB-0038,2020-008Q,2024-07-28T02:53:50.525088,13.11419044,.0002401,87.8991,158.2211,61.2148,298.9220,0,U,45145,999,22080,-.1363E-2,-.47E-5,0
ONEWEB-0040,2020-008S,2024-07-28T03:39:06.118560,13.10371330,.0002117,87.8970,173.3117,80.7768,279.3598,0,U,45147,999,21841,-.12574E-2,-.426E-5,0
ONEWEB-0043,2020-008U,2024-07-28T03:41:29.651424,13.10370925,.0002579,87.8961,173.3160,81.3818,278.7601,0,U,45149,999,21872,-.14928E-2,-.508E-5,0
ONEWEB-0044,2020-008V,2024-07-28T04:22:11.986752,13.10367141,.0002084,87.8964,173.3054,82.0337,278.1027,0,U,45150,999,21901,.63371E-2,.2225E-4,0
ONEWEB-0045,2020-008W,2024-07-28T08:33:13.596768,13.11420901,.0002036,87.8991,158.1563,76.8826,283.2529,0,U,45151,999,22090,-.97753E-3,-.334E-5,0
ONEWEB-0047,2020-008X,2024-07-28T04:12:34.426080,13.10376454,.0002131,87.8968,173.3110,82.3058,277.8312,0,U,45152,999,21875,-.24766E-3,-.74E-6,0
ONEWEB-0048,2020-008Y,2024-07-28T09:35:16.025856,13.10375212,.0002166,87.8969,173.2832,82.7486,277.3888,0,U,45153,999,21837,-.10177E-2,-.343E-5,0
ONEWEB-0049,2020-008Z,2024-07-28T04:07:47.583264,13.10376438,.000252,87.8975,173.3092,91.7077,268.4339,0,U,45154,999,21857,-.83079E-3,-.277E-5,0
ONEWEB-0051,2020-008AA,2024-07-28T03:01:10.087680,13.11419029,.0001913,87.8992,158.2438,83.0090,277.1256,0,U,45155,999,22155,-.11411E-2,-.392E-5,0
ONEWEB-0052,2020-008AB,2024-07-28T04:03:00.768960,13.10374857,.0002578,87.8967,173.2783,88.8453,271.2970,0,U,45156,999,21846,-.12539E-2,-.425E-5,0
ONEWEB-0053,2020-008AC,2024-07-28T03:36:43.129152,13.10371033,.0002277,87.8962,173.3354,74.8467,285.2912,0,U,45157,999,21843,-.12968E-2,-.44E-5,0
